IRIDIUM 26              
1 24903U 97043A   25342.24349645  .00000726  00000+0  23707-3 0  9990
2 24903  86.3965  37.4528 0002024  98.2088 261.9340 14.37322451481740
IRIDIUM 22              
1 24907U 97043E   25342.24838827  .00000668  00000+0  22270-3 0  9998
2 24907  86.3968  41.1399 0002203  96.8323 263.3125 14.36117500481754
DUMMY MASS 1            
1 24925U 97048A   25342.23025452  .00000837  00000+0  90039-4 0  9991
2 24925  86.3349  54.7933 0004506 238.7797 121.2986 14.87177353530997
DUMMY MASS 2            
1 24926U 97048B   25342.22147236  .00000838  00000+0  90662-4 0  9999
2 24926  86.3349  56.4374 0005059 257.3151 102.7508 14.86927895530763
IRIDIUM 29              
1 24944U 97051A   25342.27784879  .00000895  00000+0  29753-3 0  9993
2 24944  86.3955  70.8168 0002283  93.5266 266.6193 14.36657318478261
IRIDIUM 33              
1 24946U 97051C   25342.31358510  .00000693  00000+0  23633-3 0  9996
2 24946  86.3870  70.0794 0006551 216.8885 143.1862 14.35032780477715
IRIDIUM 28              
1 24948U 97051E   25342.28085607  .00000822  00000+0  26772-3 0  9999
2 24948  86.3959  68.2315 0001756 107.3671 252.7719 14.37557289478854
IRIDIUM 36              
1 24967U 97056C   25342.28663609  .00000906  00000+0  29448-3 0  9995
2 24967  86.3956  99.8567 0002014 101.6421 258.5003 14.37778135477235
